[{"OBJECT_NAME":"KINEIS-5E","OBJECT_ID":"2024-219C","EPOCH":"2026-03-07T04:02:00.333888","MEAN_MOTION":14.72332793,"ECCENTRICITY":0.0003243,"INCLINATION":97.9584,"RA_OF_ASC_NODE":227.8454,"ARG_OF_PERICENTER":139.1874,"MEAN_ANOMALY":220.9577,"EPHEMERIS_TYPE":0,"CLASSIFICATION_TYPE":"U","NORAD_CAT_ID":62083,"ELEMENT_SET_NO":999,"REV_AT_EPOCH":6875,"BSTAR":0.00024499,"MEAN_MOTION_DOT":1.501e-5,"MEAN_MOTION_DDOT":0},{"OBJECT_NAME":"KINEIS-5A","OBJECT_ID":"2024-219D","EPOCH":"2026-03-07T04:47:53.231424","MEAN_MOTION":14.72178288,"ECCENTRICITY":0.0001833,"INCLINATION":97.9754,"RA_OF_ASC_NODE":227.98,"ARG_OF_PERICENTER":208.4861,"MEAN_ANOMALY":151.6246,"EPHEMERIS_TYPE":0,"CLASSIFICATION_TYPE":"U","NORAD_CAT_ID":62084,"ELEMENT_SET_NO":999,"REV_AT_EPOCH":6876,"BSTAR":0.00017014,"MEAN_MOTION_DOT":1.023e-5,"MEAN_MOTION_DDOT":0},{"OBJECT_NAME":"KINEIS-5B","OBJECT_ID":"2024-219E","EPOCH":"2026-03-07T04:10:01.849728","MEAN_MOTION":14.78061585,"ECCENTRICITY":0.0001326,"INCLINATION":97.9941,"RA_OF_ASC_NODE":230.6762,"ARG_OF_PERICENTER":199.9767,"MEAN_ANOMALY":160.1392,"EPHEMERIS_TYPE":0,"CLASSIFICATION_TYPE":"U","NORAD_CAT_ID":62085,"ELEMENT_SET_NO":999,"REV_AT_EPOCH":6893,"BSTAR":0.00035558,"MEAN_MOTION_DOT":2.518e-5,"MEAN_MOTION_DDOT":0},{"OBJECT_NAME":"KINEIS-2C","OBJECT_ID":"2025-028B","EPOCH":"2026-03-07T03:28:18.000192","MEAN_MOTION":14.72306416,"ECCENTRICITY":0.0001135,"INCLINATION":98.0279,"RA_OF_ASC_NODE":121.3432,"ARG_OF_PERICENTER":37.2603,"MEAN_ANOMALY":322.8683,"EPHEMERIS_TYPE":0,"CLASSIFICATION_TYPE":"U","NORAD_CAT_ID":62929,"ELEMENT_SET_NO":999,"REV_AT_EPOCH":5759,"BSTAR":0.00024403,"MEAN_MOTION_DOT":1.493e-5,"MEAN_MOTION_DDOT":0},{"OBJECT_NAME":"KINEIS-2D","OBJECT_ID":"2025-028C","EPOCH":"2026-03-07T03:04:05.686176","MEAN_MOTION":14.75330176,"ECCENTRICITY":0.0003935,"INCLINATION":97.9411,"RA_OF_ASC_NODE":120.5052,"ARG_OF_PERICENTER":152.758,"MEAN_ANOMALY":207.3836,"EPHEMERIS_TYPE":0,"CLASSIFICATION_TYPE":"U","NORAD_CAT_ID":62930,"ELEMENT_SET_NO":999,"REV_AT_EPOCH":5766,"BSTAR":0.00030689,"MEAN_MOTION_DOT":2.03e-5,"MEAN_MOTION_DDOT":0},{"OBJECT_NAME":"KINEIS-2E","OBJECT_ID":"2025-028D","EPOCH":"2026-03-07T02:56:27.830976","MEAN_MOTION":14.76703957,"ECCENTRICITY":0.0001878,"INCLINATION":97.9086,"RA_OF_ASC_NODE":119.8907,"ARG_OF_PERICENTER":112.8424,"MEAN_ANOMALY":247.2985,"EPHEMERIS_TYPE":0,"CLASSIFICATION_TYPE":"U","NORAD_CAT_ID":62931,"ELEMENT_SET_NO":999,"REV_AT_EPOCH":5771,"BSTAR":0.00025098,"MEAN_MOTION_DOT":1.706e-5,"MEAN_MOTION_DDOT":0},{"OBJECT_NAME":"KINEIS-2A","OBJECT_ID":"2025-028E","EPOCH":"2026-03-06T10:12:03.163968","MEAN_MOTION":14.72089613,"ECCENTRICITY":0.00034484,"INCLINATION":98.0729,"RA_OF_ASC_NODE":120.9524,"ARG_OF_PERICENTER":203.6513,"MEAN_ANOMALY":156.4536,"EPHEMERIS_TYPE":0,"CLASSIFICATION_TYPE":"U","NORAD_CAT_ID":62932,"ELEMENT_SET_NO":999,"REV_AT_EPOCH":5748,"BSTAR":0.00025649134,"MEAN_MOTION_DOT":1.563e-5,"MEAN_MOTION_DDOT":0},{"OBJECT_NAME":"KINEIS-2B","OBJECT_ID":"2025-028G","EPOCH":"2026-03-07T03:03:05.282208","MEAN_MOTION":14.73104752,"ECCENTRICITY":0.0004899,"INCLINATION":97.9798,"RA_OF_ASC_NODE":120.8018,"ARG_OF_PERICENTER":114.757,"MEAN_ANOMALY":245.4148,"EPHEMERIS_TYPE":0,"CLASSIFICATION_TYPE":"U","NORAD_CAT_ID":62934,"ELEMENT_SET_NO":999,"REV_AT_EPOCH":5763,"BSTAR":0.00024822,"MEAN_MOTION_DOT":1.549e-5,"MEAN_MOTION_DDOT":0},{"OBJECT_NAME":"KINEIS-4E","OBJECT_ID":"2025-056A","EPOCH":"2026-03-07T05:45:13.571424","MEAN_MOTION":14.72352777,"ECCENTRICITY":8.04e-5,"INCLINATION":97.9937,"RA_OF_ASC_NODE":192.5879,"ARG_OF_PERICENTER":184.6191,"MEAN_ANOMALY":175.5009,"EPHEMERIS_TYPE":0,"CLASSIFICATION_TYPE":"U","NORAD_CAT_ID":63300,"ELEMENT_SET_NO":999,"REV_AT_EPOCH":5212,"BSTAR":0.00053389,"MEAN_MOTION_DOT":3.33e-5,"MEAN_MOTION_DDOT":0},{"OBJECT_NAME":"KINEIS-4C","OBJECT_ID":"2025-056B","EPOCH":"2026-03-05T21:25:51.278304","MEAN_MOTION":14.72336552,"ECCENTRICITY":3.554e-5,"INCLINATION":97.9972,"RA_OF_ASC_NODE":191.4275,"ARG_OF_PERICENTER":67.1158,"MEAN_ANOMALY":293.0087,"EPHEMERIS_TYPE":0,"CLASSIFICATION_TYPE":"U","NORAD_CAT_ID":63301,"ELEMENT_SET_NO":999,"REV_AT_EPOCH":5193,"BSTAR":0.00050581047,"MEAN_MOTION_DOT":3.151e-5,"MEAN_MOTION_DDOT":0},{"OBJECT_NAME":"KINEIS-4D","OBJECT_ID":"2025-056C","EPOCH":"2026-03-06T05:42:26.633664","MEAN_MOTION":14.72321809,"ECCENTRICITY":5.074e-5,"INCLINATION":97.9949,"RA_OF_ASC_NODE":191.7445,"ARG_OF_PERICENTER":311.1621,"MEAN_ANOMALY":48.9542,"EPHEMERIS_TYPE":0,"CLASSIFICATION_TYPE":"U","NORAD_CAT_ID":63302,"ELEMENT_SET_NO":999,"REV_AT_EPOCH":5198,"BSTAR":0.00045357903,"MEAN_MOTION_DOT":2.819e-5,"MEAN_MOTION_DDOT":0},{"OBJECT_NAME":"KINEIS-4A","OBJECT_ID":"2025-056D","EPOCH":"2026-03-05T22:20:55.996224","MEAN_MOTION":14.72296229,"ECCENTRICITY":0.00016399,"INCLINATION":97.9935,"RA_OF_ASC_NODE":191.3695,"ARG_OF_PERICENTER":259.3732,"MEAN_ANOMALY":100.7291,"EPHEMERIS_TYPE":0,"CLASSIFICATION_TYPE":"U","NORAD_CAT_ID":63303,"ELEMENT_SET_NO":999,"REV_AT_EPOCH":5193,"BSTAR":-0.00014085258,"MEAN_MOTION_DOT":-9.39e-6,"MEAN_MOTION_DDOT":0},{"OBJECT_NAME":"KINEIS-4B","OBJECT_ID":"2025-056E","EPOCH":"2026-03-07T04:56:01.307616","MEAN_MOTION":14.72291553,"ECCENTRICITY":0.0002316,"INCLINATION":97.9937,"RA_OF_ASC_NODE":192.6682,"ARG_OF_PERICENTER":196.9508,"MEAN_ANOMALY":163.1622,"EPHEMERIS_TYPE":0,"CLASSIFICATION_TYPE":"U","NORAD_CAT_ID":63304,"ELEMENT_SET_NO":999,"REV_AT_EPOCH":5211,"BSTAR":0.00041509,"MEAN_MOTION_DOT":2.574e-5,"MEAN_MOTION_DDOT":0}]
