KINEIS-5E               
1 62083U 24219C   26066.16805942  .00001501  00000+0  24499-3 0  9999
2 62083  97.9584 227.8454 0003243 139.1874 220.9577 14.72332793 68759
KINEIS-5A               
1 62084U 24219D   26066.19992166  .00001023  00000+0  17014-3 0  9992
2 62084  97.9754 227.9800 0001833 208.4861 151.6246 14.72178288 68765
KINEIS-5B               
1 62085U 24219E   26066.17363252  .00002518  00000+0  35558-3 0  9992
2 62085  97.9941 230.6762 0001326 199.9767 160.1392 14.78061585 68931
KINEIS-2C               
1 62929U 25028B   26066.14465278  .00001493  00000+0  24403-3 0  9994
2 62929  98.0279 121.3432 0001135  37.2603 322.8683 14.72306416 57594
KINEIS-2D               
1 62930U 25028C   26066.12784359  .00002030  00000+0  30689-3 0  9999
2 62930  97.9411 120.5052 0003935 152.7580 207.3836 14.75330176 57666
KINEIS-2E               
1 62931U 25028D   26066.12254434  .00001706  00000+0  25098-3 0  9993
2 62931  97.9086 119.8907 0001878 112.8424 247.2985 14.76703957 57719
KINEIS-2A               
1 62932U 25028E   26065.42503662  .00001563  00000+0  25649-3 0  9999
2 62932  98.0729 120.9524 0003448 203.6513 156.4536 14.72089613 57486
KINEIS-2B               
1 62934U 25028G   26066.12714447  .00001549  00000+0  24822-3 0  9990
2 62934  97.9798 120.8018 0004899 114.7570 245.4148 14.73104752 57633
KINEIS-4E               
1 63300U 25056A   26066.23974041  .00003330  00000+0  53389-3 0  9999
2 63300  97.9937 192.5879 0000804 184.6191 175.5009 14.72352777 52123
KINEIS-4C               
1 63301U 25056B   26064.89295461  .00003151  00000+0  50581-3 0  9994
2 63301  97.9972 191.4275 0000355  67.1158 293.0087 14.72336552 51933
KINEIS-4D               
1 63302U 25056C   26065.23780826  .00002819  00000+0  45358-3 0  9994
2 63302  97.9949 191.7445 0000507 311.1621  48.9542 14.72321809 51983
KINEIS-4A               
1 63303U 25056D   26064.93120366 -.00000939  00000+0 -14085-3 0  9994
2 63303  97.9935 191.3695 0001639 259.3732 100.7291 14.72296229 51935
KINEIS-4B               
1 63304U 25056E   26066.20557069  .00002574  00000+0  41509-3 0  9997
2 63304  97.9937 192.6682 0002316 196.9508 163.1622 14.72291553 52115
